QIANFAN-65              
1 62795U 25016L   25210.89560428  .00000134  00000+0  18927-3 0  9992
2 62795  88.9835 117.0924 0015330  23.1554 337.0284 13.50959516 28908
QIANFAN-66              
1 62796U 25016M   25211.51678032  .00000139  00000+0  19596-3 0  9992
2 62796  88.9853 116.9722 0016251  16.9694 343.1997 13.50961946 29035
QIANFAN-67              
1 62797U 25016N   25210.85445545  .00000144  00000+0  20481-3 0  9991
2 62797  88.9844 117.0790 0016501  25.0269 335.1678 13.50963303 28912
QIANFAN-68              
1 62798U 25016P   25210.85849967  .00000143  00000+0  20295-3 0  9990
2 62798  88.9848 117.1219 0017076  23.2026 336.9892 13.50960729 28896
QIANFAN-69              
1 62799U 25016Q   25210.86254455  .00000142  00000+0  20164-3 0  9998
2 62799  88.9826 117.0171 0017267  24.1002 336.0953 13.50961607 28935
QIANFAN-70              
1 62800U 25016R   25210.87909221  .00000142  00000+0  20153-3 0  9998
2 62800  88.9848 117.1251 0016546  15.3470 344.8179 13.50960090 28899
QIANFAN-71              
1 62801U 25016S   25210.87505951  .00000145  00000+0  20568-3 0  9994
2 62801  88.9842 117.1133 0017284  27.2798 332.9257 13.50959959 28895
QIANFAN-72              
1 62802U 25016T   25210.87078845  .00000144  00000+0  20382-3 0  9995
2 62802  88.9831 117.1356 0020857  32.2880 327.9543 13.50961630 28889
